CCSDS_OMM_VERS = 2.0
CREATION_DATE  = 
ORIGINATOR     = 

OBJECT_NAME    = RSP-03
OBJECT_ID      = 1998-067XL
CENTER_NAME    = EARTH
REF_FRAME      = TEME
TIME_SYSTEM    = UTC
MEAN_ELEMENT_THEORY = SGP/SGP4

EPOCH          = 2026-02-15T17:29:49.873344
MEAN_MOTION    = 16.29510775
ECCENTRICITY   = .000796
INCLINATION    = 51.6084
RA_OF_ASC_NODE = 157.7974
ARG_OF_PERICENTER = 327.1992
MEAN_ANOMALY   = 32.8535

EPHEMERIS_TYPE = 0
CLASSIFICATION_TYPE = U
NORAD_CAT_ID   = 65732
ELEMENT_SET_NO = 999
REV_AT_EPOCH   = 2346
BSTAR          = .11945E-2
MEAN_MOTION_DOT = .5404537E-1
MEAN_MOTION_DDOT = .12174E-4

CCSDS_OMM_VERS = 2.0
CREATION_DATE  = 
ORIGINATOR     = 

OBJECT_NAME    = YOTSUBA-KULOVER
OBJECT_ID      = 1998-067XN
CENTER_NAME    = EARTH
REF_FRAME      = TEME
TIME_SYSTEM    = UTC
MEAN_ELEMENT_THEORY = SGP/SGP4

EPOCH          = 2026-02-15T12:22:39.972288
MEAN_MOTION    = 15.72770620
ECCENTRICITY   = .00046232
INCLINATION    = 51.6246
RA_OF_ASC_NODE = 171.5729
ARG_OF_PERICENTER = 308.2931
MEAN_ANOMALY   = 51.7651

EPHEMERIS_TYPE = 0
CLASSIFICATION_TYPE = U
NORAD_CAT_ID   = 65941
ELEMENT_SET_NO = 999
REV_AT_EPOCH   = 2000
BSTAR          = .11759301E-2
MEAN_MOTION_DOT = .164991E-2
MEAN_MOTION_DDOT = 0

CCSDS_OMM_VERS = 2.0
CREATION_DATE  = 
ORIGINATOR     = 

OBJECT_NAME    = BOTAN
OBJECT_ID      = 1998-067XP
CENTER_NAME    = EARTH
REF_FRAME      = TEME
TIME_SYSTEM    = UTC
MEAN_ELEMENT_THEORY = SGP/SGP4

EPOCH          = 2026-02-15T13:51:16.246368
MEAN_MOTION    = 15.89938548
ECCENTRICITY   = .00087591
INCLINATION    = 51.6166
RA_OF_ASC_NODE = 166.6675
ARG_OF_PERICENTER = 330.3659
MEAN_ANOMALY   = 29.6849

EPHEMERIS_TYPE = 0
CLASSIFICATION_TYPE = U
NORAD_CAT_ID   = 65942
ELEMENT_SET_NO = 999
REV_AT_EPOCH   = 2007
BSTAR          = .15961399E-2
MEAN_MOTION_DOT = .486963E-2
MEAN_MOTION_DDOT = .10067793E-3

CCSDS_OMM_VERS = 2.0
CREATION_DATE  = 
ORIGINATOR     = 

OBJECT_NAME    = E-KAGAKU-1
OBJECT_ID      = 1998-067XQ
CENTER_NAME    = EARTH
REF_FRAME      = TEME
TIME_SYSTEM    = UTC
MEAN_ELEMENT_THEORY = SGP/SGP4

EPOCH          = 2026-02-15T12:24:34.007328
MEAN_MOTION    = 15.72633938
ECCENTRICITY   = .00046419
INCLINATION    = 51.6274
RA_OF_ASC_NODE = 171.5949
ARG_OF_PERICENTER = 322.6384
MEAN_ANOMALY   = 37.4291

EPHEMERIS_TYPE = 0
CLASSIFICATION_TYPE = U
NORAD_CAT_ID   = 65943
ELEMENT_SET_NO = 999
REV_AT_EPOCH   = 2000
BSTAR          = .11758444E-2
MEAN_MOTION_DOT = .163999E-2
MEAN_MOTION_DDOT = 0

CCSDS_OMM_VERS = 2.0
CREATION_DATE  = 
ORIGINATOR     = 

OBJECT_NAME    = HRC MONOBLOCK CAMERA
OBJECT_ID      = 1998-067XR
CENTER_NAME    = EARTH
REF_FRAME      = TEME
TIME_SYSTEM    = UTC
MEAN_ELEMENT_THEORY = SGP/SGP4

EPOCH          = 2026-02-15T13:10:56.393184
MEAN_MOTION    = 15.59873379
ECCENTRICITY   = .0001906
INCLINATION    = 51.6277
RA_OF_ASC_NODE = 177.0654
ARG_OF_PERICENTER = 11.5180
MEAN_ANOMALY   = 348.5856

EPHEMERIS_TYPE = 0
CLASSIFICATION_TYPE = U
NORAD_CAT_ID   = 66052
ELEMENT_SET_NO = 999
REV_AT_EPOCH   = 1893
BSTAR          = .63608E-3
MEAN_MOTION_DOT = .52002E-3
MEAN_MOTION_DDOT = 0

CCSDS_OMM_VERS = 2.0
CREATION_DATE  = 
ORIGINATOR     = 

OBJECT_NAME    = HTV-X1
OBJECT_ID      = 2025-241A
CENTER_NAME    = EARTH
REF_FRAME      = TEME
TIME_SYSTEM    = UTC
MEAN_ELEMENT_THEORY = SGP/SGP4

EPOCH          = 2026-02-15T13:40:14.415456
MEAN_MOTION    = 15.48625638
ECCENTRICITY   = .00109928
INCLINATION    = 51.6318
RA_OF_ASC_NODE = 181.6982
ARG_OF_PERICENTER = 101.7612
MEAN_ANOMALY   = 258.4610

EPHEMERIS_TYPE = 0
CLASSIFICATION_TYPE = U
NORAD_CAT_ID   = 66174
ELEMENT_SET_NO = 999
REV_AT_EPOCH   = 51
BSTAR          = .2325502E-3
MEAN_MOTION_DOT = .12237E-3
MEAN_MOTION_DDOT = 0

CCSDS_OMM_VERS = 2.0
CREATION_DATE  = 
ORIGINATOR     = 

OBJECT_NAME    = SZ-21 MODULE
OBJECT_ID      = 2025-246C
CENTER_NAME    = EARTH
REF_FRAME      = TEME
TIME_SYSTEM    = UTC
MEAN_ELEMENT_THEORY = SGP/SGP4

EPOCH          = 2026-02-15T04:52:02.803872
MEAN_MOTION    = 15.66814588
ECCENTRICITY   = .0002175
INCLINATION    = 41.4768
RA_OF_ASC_NODE = 341.5977
ARG_OF_PERICENTER = 296.5638
MEAN_ANOMALY   = 63.4980

EPHEMERIS_TYPE = 0
CLASSIFICATION_TYPE = U
NORAD_CAT_ID   = 66515
ELEMENT_SET_NO = 999
REV_AT_EPOCH   = 1454
BSTAR          = .37236E-3
MEAN_MOTION_DOT = .4035E-3
MEAN_MOTION_DDOT = 0

CCSDS_OMM_VERS = 2.0
CREATION_DATE  = 
ORIGINATOR     = 

OBJECT_NAME    = SHENZHOU-22
OBJECT_ID      = 2025-272A
CENTER_NAME    = EARTH
REF_FRAME      = TEME
TIME_SYSTEM    = UTC
MEAN_ELEMENT_THEORY = SGP/SGP4

EPOCH          = 2026-02-15T05:55:50.092320
MEAN_MOTION    = 15.59657652
ECCENTRICITY   = .00040861
INCLINATION    = 41.4684
RA_OF_ASC_NODE = 344.6145
ARG_OF_PERICENTER = 100.8613
MEAN_ANOMALY   = 259.2686

EPHEMERIS_TYPE = 0
CLASSIFICATION_TYPE = U
NORAD_CAT_ID   = 66645
ELEMENT_SET_NO = 999
REV_AT_EPOCH   = 26764
BSTAR          = .39403586E-3
MEAN_MOTION_DOT = .32152E-3
MEAN_MOTION_DDOT = 0

CCSDS_OMM_VERS = 2.0
CREATION_DATE  = 
ORIGINATOR     = 

OBJECT_NAME    = SOYUZ-MS 28
OBJECT_ID      = 2025-275A
CENTER_NAME    = EARTH
REF_FRAME      = TEME
TIME_SYSTEM    = UTC
MEAN_ELEMENT_THEORY = SGP/SGP4

EPOCH          = 2026-02-15T13:40:14.415456
MEAN_MOTION    = 15.48625638
ECCENTRICITY   = .0010993
INCLINATION    = 51.6318
RA_OF_ASC_NODE = 181.6981
ARG_OF_PERICENTER = 101.7612
MEAN_ANOMALY   = 258.4610

EPHEMERIS_TYPE = 0
CLASSIFICATION_TYPE = U
NORAD_CAT_ID   = 66664
ELEMENT_SET_NO = 999
REV_AT_EPOCH   = 55290
BSTAR          = .23255E-3
MEAN_MOTION_DOT = .12237E-3
MEAN_MOTION_DDOT = 0

CCSDS_OMM_VERS = 2.0
CREATION_DATE  = 
ORIGINATOR     = 

OBJECT_NAME    = DUPLEX
OBJECT_ID      = 1998-067XS
CENTER_NAME    = EARTH
REF_FRAME      = TEME
TIME_SYSTEM    = UTC
MEAN_ELEMENT_THEORY = SGP/SGP4

EPOCH          = 2026-02-15T13:10:26.316480
MEAN_MOTION    = 15.54659090
ECCENTRICITY   = .0001408
INCLINATION    = 51.6292
RA_OF_ASC_NODE = 180.0635
ARG_OF_PERICENTER = 71.9206
MEAN_ANOMALY   = 288.1938

EPHEMERIS_TYPE = 0
CLASSIFICATION_TYPE = U
NORAD_CAT_ID   = 66906
ELEMENT_SET_NO = 999
REV_AT_EPOCH   = 1168
BSTAR          = .52648E-3
MEAN_MOTION_DOT = .35209E-3
MEAN_MOTION_DDOT = 0

CCSDS_OMM_VERS = 2.0
CREATION_DATE  = 
ORIGINATOR     = 

OBJECT_NAME    = ISS OBJECT XT
OBJECT_ID      = 1998-067XT
CENTER_NAME    = EARTH
REF_FRAME      = TEME
TIME_SYSTEM    = UTC
MEAN_ELEMENT_THEORY = SGP/SGP4

EPOCH          = 2026-02-15T18:11:04.358976
MEAN_MOTION    = 15.63239154
ECCENTRICITY   = .0002289
INCLINATION    = 51.6272
RA_OF_ASC_NODE = 176.9534
ARG_OF_PERICENTER = 311.2499
MEAN_ANOMALY   = 48.8298

EPHEMERIS_TYPE = 0
CLASSIFICATION_TYPE = U
NORAD_CAT_ID   = 66907
ELEMENT_SET_NO = 999
REV_AT_EPOCH   = 1174
BSTAR          = .13778E-2
MEAN_MOTION_DOT = .130306E-2
MEAN_MOTION_DDOT = 0

CCSDS_OMM_VERS = 2.0
CREATION_DATE  = 
ORIGINATOR     = 

OBJECT_NAME    = ISS OBJECT XU
OBJECT_ID      = 1998-067XU
CENTER_NAME    = EARTH
REF_FRAME      = TEME
TIME_SYSTEM    = UTC
MEAN_ELEMENT_THEORY = SGP/SGP4

EPOCH          = 2026-02-15T18:10:01.788096
MEAN_MOTION    = 15.63275310
ECCENTRICITY   = .0002266
INCLINATION    = 51.6259
RA_OF_ASC_NODE = 176.9459
ARG_OF_PERICENTER = 318.2618
MEAN_ANOMALY   = 41.8203

EPHEMERIS_TYPE = 0
CLASSIFICATION_TYPE = U
NORAD_CAT_ID   = 66908
ELEMENT_SET_NO = 999
REV_AT_EPOCH   = 1174
BSTAR          = .13922E-2
MEAN_MOTION_DOT = .131884E-2
MEAN_MOTION_DDOT = 0

